STARLINK-4465
1 53496U 22099AH  26092.81109348  .00210268  21003-4  37154-3 0  9994
2 53496  97.6345 242.7165 0004905 304.0769  56.0044 16.01958452201358
